GLOBALSTAR M068         
1 32266U 07048D   24330.57136016 -.00000051  00000+0  29199-3 0  9998
2 32266  51.9867 202.9396 0001984  62.4570 326.0503 12.62809251791837
GLOBALSTAR M079         
1 37188U 10054A   24330.61412624 -.00000089  00000+0  84267-4 0  9993
2 37188  52.0058  39.4954 0000621 148.8186 359.0623 12.62267465650749
GLOBALSTAR M074         
1 37189U 10054B   24330.39193608 -.00000085  00000+0  10589-3 0  9998
2 37189  52.0038  39.5232 0000331 108.1780 351.1821 12.62259345651321
GLOBALSTAR M076         
1 37190U 10054C   24330.41460438 -.00000091  00000+0  71280-4 0  9994
2 37190  52.0052  39.6104 0000310 165.1867 274.9839 12.62273792651046
GLOBALSTAR M077         
1 37191U 10054D   24330.49539674 -.00000075  00000+0  16137-3 0  9993
2 37191  52.0091 356.1632 0000261  92.7076  54.8364 12.62267422651428
GLOBALSTAR M075         
1 37192U 10054E   24330.33473628 -.00000089  00000+0  81431-4 0  9998
2 37192  51.9949  82.2203 0000676 110.5193 268.0102 12.62269247650109
GLOBALSTAR M073         
1 37193U 10054F   24330.27321233 -.00000084  00000+0  11082-3 0  9995
2 37193  52.0080 356.0734 0000192 127.2383 331.5636 12.62272980652083
GLOBALSTAR M083         
1 37739U 11033A   24330.12793882 -.00000080  00000+0  13462-3 0  9996
2 37739  51.9866 305.5258 0000524  73.1611  25.1671 12.62268141621086
GLOBALSTAR M088         
1 37740U 11033B   24330.72183779 -.00000084  00000+0  11139-3 0  9995
2 37740  51.9718 209.3797 0001021  82.0082 317.1094 12.62265530616993
GLOBALSTAR M091         
1 37741U 11033C   24330.57485081 -.00000071  00000+0  18458-3 0  9997
2 37741  51.9969 173.0201 0001269  99.3024 290.2224 12.62271068617473
GLOBALSTAR M085         
1 37742U 11033D   24330.40082128 -.00000080  00000+0  13115-3 0  9990
2 37742  51.9842 124.7645 0001193 111.6725 267.8744 12.62269565617961
GLOBALSTAR M081         
1 37743U 11033E   24330.59085907 -.00000090  00000+0  78625-4 0  9998
2 37743  51.9937 126.8475 0000967 121.4399 282.0252 12.62273609618132
GLOBALSTAR M089         
1 37744U 11033F   24330.56691619 -.00000101  00000+0  16707-4 0  9995
2 37744  51.9931  81.1869 0000416 118.2279 355.5016 12.62272487618976
GLOBALSTAR M084         
1 38040U 11080A   24330.26080977 -.00000065  00000+0  21670-3 0  9996
2 38040  52.0018 309.3001 0000509  22.5173  79.8679 12.62271116596918
GLOBALSTAR M080         
1 38041U 11080B   24330.40475501 -.00000071  00000+0  18298-3 0  9993
2 38041  52.0070 310.3982 0000388 346.4338 169.7284 12.62269043597056
GLOBALSTAR M082         
1 38042U 11080C   24330.33545245 -.00000087  00000+0  92484-4 0  9996
2 38042  52.0079 266.0333 0001122  76.5031  64.9040 12.62269951597752
GLOBALSTAR M092         
1 38043U 11080D   24330.54247258 -.00000079  00000+0  13829-3 0  9999
2 38043  52.0105 355.7686 0000346  72.6533  50.0645 12.62269762596230
GLOBALSTAR M090         
1 38044U 11080E   24330.11568420 -.00000082  00000+0  12422-3 0  9992
2 38044  51.9886 260.7722 0000855  74.8388  27.9655 12.62271162597847
GLOBALSTAR M086         
1 38045U 11080F   24330.39148733 -.00000087  00000+0  91586-4 0  9998
2 38045  51.9900 260.4674 0000243 194.2850 322.9456 12.62270674597822
GLOBALSTAR M097         
1 39072U 13005A   24330.54210764 -.00000068  00000+0  19999-3 0  9995
2 39072  52.0017 174.3514 0001039 100.3968 259.7016 12.62267746545178
GLOBALSTAR M093         
1 39073U 13005B   24330.11934714 -.00000072  00000+0  17843-3 0  9998
2 39073  51.9780 169.2646 0001140 101.3436 258.7558 12.62276675544997
GLOBALSTAR M094         
1 39074U 13005C   24330.51543542 -.00000094  00000+0  53058-4 0  9991
2 39074  51.9960  82.2346 0000941 132.9235 227.1711 12.62265539546657
GLOBALSTAR M096         
1 39075U 13005D   24330.68698825 -.00000081  00000+0  12486-3 0  9990
2 39075  52.0049 130.0691 0001203 115.0925 245.0067 12.62265028545940
GLOBALSTAR M078         
1 39076U 13005E   24330.73928097 -.00000190  00000+0 -48361-3 0  9997
2 39076  51.9866 214.6954 0001805  83.8862 276.2210 12.62266484544433
GLOBALSTAR M095         
1 39077U 13005F   24330.05348660 -.00000075  00000+0  16238-3 0  9994
2 39077  51.9786 214.0849 0001440  92.2116 267.8916 12.62268691543994
GLOBALSTAR M087         
1 52888U 22064A   24330.27935808 -.00000075  00000+0  10684-3 0  9993
2 52888  51.9782   7.2112 0035237   3.7677 356.3480 13.30670737119072
